{
  "type": "FeatureCollection",
  "name": "Underground_3D_Utilities_and_Subsurface_Parcels",
  "crs": {
    "type": "name",
    "properties": {
      "name": "urn:ogc:def:crs:OGC:1.3:CRS84"
    }
  },
  "features": [
    {
      "type": "Feature",
      "properties": {
        "id": "util_bhopal_metro_blue",
        "asset_name": "Bhopal Metro Orange Line (Sub-surface Section)",
        "asset_type": "RAPID_TRANSIT_TUNNEL",
        "subsurface_type": "TRANSIT_TUNNEL",
        "proposed_subsurface_ulpin": "IN-MP-BPL-SUB-METRO-T01",
        "parent_parcel_id": "bhopal_ward_43",
        "depth_below_ground_m": 14.5,
        "diameter_m": 5.8,
        "height_m": 5.8,
        "tunnel_width_m": 5.8,
        "clearance_z_m": -14.5,
        "status": "STATUTORY_RIGHT_OF_WAY",
        "provenance": "AUTHORITATIVE_SURVEY",
        "jurisdiction": "Madhya Pradesh Metro Rail Corporation (MPMRCL)",
        "color": "#38bdf8"
      },
      "geometry": {
        "type": "Polygon",
        "coordinates": [
          [
            [77.4120, 23.2500],
            [77.4260, 23.2505],
            [77.4260, 23.2512],
            [77.4120, 23.2507],
            [77.4120, 23.2500]
          ]
        ]
      }
    },
    {
      "type": "Feature",
      "properties": {
        "id": "util_bhopal_water_main",
        "asset_name": "Kolar Water Pipeline Transmission Trunk Line",
        "asset_type": "WATER_SUPPLY_CONDUIT",
        "subsurface_type": "UTILITY_PIPELINE",
        "proposed_subsurface_ulpin": "IN-MP-BPL-SUB-WATER-TRUNK-04",
        "parent_parcel_id": "bhopal_ward_44",
        "depth_below_ground_m": 4.8,
        "diameter_m": 2.2,
        "height_m": 2.2,
        "clearance_z_m": -4.8,
        "status": "STATUTORY_UTILITY_EASEMENT",
        "provenance": "MUNICIPAL_INFRA_REGISTRY",
        "jurisdiction": "Bhopal Municipal Corporation Water Works",
        "color": "#06b6d4"
      },
      "geometry": {
        "type": "Polygon",
        "coordinates": [
          [
            [77.4135, 23.2460],
            [77.4245, 23.2465],
            [77.4245, 23.2470],
            [77.4135, 23.2465],
            [77.4135, 23.2460]
          ]
        ]
      }
    },
    {
      "type": "Feature",
      "properties": {
        "id": "util_bhopal_power_duct",
        "asset_name": "MPPKVVCL 33kV Sub-surface Electrical Conduit Duct",
        "asset_type": "POWER_GRID_CONDUIT",
        "subsurface_type": "HIGH_VOLTAGE_DUCT",
        "proposed_subsurface_ulpin": "IN-MP-BPL-SUB-ELEC-HV33K-12",
        "parent_parcel_id": "bhopal_ward_45",
        "depth_below_ground_m": 3.2,
        "diameter_m": 1.5,
        "height_m": 1.5,
        "clearance_z_m": -3.2,
        "status": "STATUTORY_UTILITY_EASEMENT",
        "provenance": "MPPKVVCL_POWER_GRID",
        "jurisdiction": "MP Poorv Kshetra Vidyut Vitaran Co.",
        "color": "#eab308"
      },
      "geometry": {
        "type": "Polygon",
        "coordinates": [
          [
            [77.4170, 23.2450],
            [77.4175, 23.2560],
            [77.4180, 23.2560],
            [77.4175, 23.2450],
            [77.4170, 23.2450]
          ]
        ]
      }
    },
    {
      "type": "Feature",
      "properties": {
        "id": "util_bengaluru_metro_tunnel",
        "asset_name": "Namma Metro Underground Transit Corridor (Pink Line)",
        "asset_type": "RAPID_TRANSIT_TUNNEL",
        "subsurface_type": "TRANSIT_TUNNEL",
        "proposed_subsurface_ulpin": "IN-KA-BLR-SUB-METRO-T02",
        "parent_parcel_id": "blr_ward_174",
        "depth_below_ground_m": 18.0,
        "diameter_m": 6.2,
        "height_m": 6.2,
        "clearance_z_m": -18.0,
        "status": "STATUTORY_RIGHT_OF_WAY",
        "provenance": "BMRCL_ENGINEERING_SURVEY",
        "jurisdiction": "Bangalore Metro Rail Corporation Limited",
        "color": "#ec4899"
      },
      "geometry": {
        "type": "Polygon",
        "coordinates": [
          [
            [77.6130, 12.9280],
            [77.6265, 12.9320],
            [77.6265, 12.9328],
            [77.6130, 12.9288],
            [77.6130, 12.9280]
          ]
        ]
      }
    },
    {
      "type": "Feature",
      "properties": {
        "id": "util_indore_metro_underground",
        "asset_name": "Indore Metro Yellow Line Subsurface Alignment",
        "asset_type": "RAPID_TRANSIT_TUNNEL",
        "subsurface_type": "TRANSIT_TUNNEL",
        "proposed_subsurface_ulpin": "IN-MP-IND-SUB-METRO-Y01",
        "parent_parcel_id": "indore_ward_76",
        "depth_below_ground_m": 12.0,
        "diameter_m": 5.5,
        "height_m": 5.5,
        "clearance_z_m": -12.0,
        "status": "STATUTORY_RIGHT_OF_WAY",
        "provenance": "MPMRCL_INDORE_SURVEY",
        "jurisdiction": "Madhya Pradesh Metro Rail Corporation",
        "color": "#38bdf8"
      },
      "geometry": {
        "type": "Polygon",
        "coordinates": [
          [
            [75.8690, 22.7180],
            [75.8820, 22.7210],
            [75.8820, 22.7218],
            [75.8690, 22.7188],
            [75.8690, 22.7180]
          ]
        ]
      }
    },
    {
      "type": "Feature",
      "properties": {
        "id": "util_navi_mumbai_pipeline",
        "asset_name": "MIDC Subsurface Industrial Gas & Water Conduit",
        "asset_type": "UTILITY_PIPELINE",
        "subsurface_type": "HIGH_PRESSURE_GAS_WATER",
        "proposed_subsurface_ulpin": "IN-MH-NMB-SUB-MIDC-GW02",
        "parent_parcel_id": "navi_mumbai_ward_24",
        "depth_below_ground_m": 6.5,
        "diameter_m": 2.4,
        "height_m": 2.4,
        "clearance_z_m": -6.5,
        "status": "STATUTORY_RIGHT_OF_WAY",
        "provenance": "MIDC_INFRA_REGISTRY",
        "jurisdiction": "Maharashtra Industrial Development Corporation",
        "color": "#f97316"
      },
      "geometry": {
        "type": "Polygon",
        "coordinates": [
          [
            [72.9960, 19.0720],
            [73.0080, 19.0760],
            [73.0080, 19.0767],
            [72.9960, 19.0727],
            [72.9960, 19.0720]
          ]
        ]
      }
    }
  ]
}
